[{"OBJECT_NAME":"TIME FLIES","OBJECT_ID":"2025-135AN","EPOCH":"2026-03-09T21:41:19.799232","MEAN_MOTION":14.94183091,"ECCENTRICITY":0.00014084,"INCLINATION":97.7573,"RA_OF_ASC_NODE":184.4121,"ARG_OF_PERICENTER":214.5319,"MEAN_ANOMALY":145.581,"EPHEMERIS_TYPE":0,"CLASSIFICATION_TYPE":"U","NORAD_CAT_ID":64564,"ELEMENT_SET_NO":999,"REV_AT_EPOCH":3907,"BSTAR":0.00043258221,"MEAN_MOTION_DOT":4.577e-5,"MEAN_MOTION_DDOT":0},{"OBJECT_NAME":"BEE-1000","OBJECT_ID":"2025-274A","EPOCH":"2026-03-09T17:43:09.420672","MEAN_MOTION":14.92338483,"ECCENTRICITY":0.00111471,"INCLINATION":97.7438,"RA_OF_ASC_NODE":359.3923,"ARG_OF_PERICENTER":332.1906,"MEAN_ANOMALY":27.8715,"EPHEMERIS_TYPE":0,"CLASSIFICATION_TYPE":"U","NORAD_CAT_ID":66650,"ELEMENT_SET_NO":999,"REV_AT_EPOCH":1537,"BSTAR":0.00044877619,"MEAN_MOTION_DOT":4.538e-5,"MEAN_MOTION_DDOT":0}]
